NORAD_CAT_ID,OBJECT_NAME,OBJECT_TYPE,EPOCH,MEAN_MOTION,ECCENTRICITY,INCLINATION,RA_OF_ASC_NODE,ARG_OF_PERICENTER,MEAN_ANOMALY,BSTAR,MEAN_MOTION_DOT,MEAN_MOTION_DDOT,TLE_LINE0,TLE_LINE1,TLE_LINE2,SEMIMAJOR_AXIS,PERIOD,APOGEE,PERIGEE,DECAYED
51141.0,STARLINK-3179,PAYLOAD,2022-12-08 02:00:17,15.08844978,0.0003266,53.2155,230.5011,35.344,324.7768,-1.037e-05,-4.54e-06,0.0,0 STARLINK-3179,1 51141U 22005AP  22342.08353938 -.00000454  00000-0 -10370-4 0  9993,2 51141  53.2155 230.5011 0003266  35.3440 324.7768 15.08844978 49456,6917.865,95.437,541.99,537.471,0.0
51141.0,STARLINK-3179,PAYLOAD,2022-12-09 00:15:41,15.08843605,0.0003261,53.216,226.3406,34.4167,325.7036,0.00010069,1.314e-05,0.0,0 STARLINK-3179,1 51141U 22005AP  22343.01089577  .00001314  00000-0  10069-3 0  9990,2 51141  53.2160 226.3406 0003261  34.4167 325.7036 15.08843605 49594,6917.869000000002,95.437,541.99,537.4780000000002,0.0
51141.0,STARLINK-3179,PAYLOAD,2022-12-09 20:55:43,15.08823948,0.0002448,53.2164,222.4733,41.1598,318.9578,-2.378e-05,-6.67e-06,0.0,0 STARLINK-3179,1 51141U 22005AP  22343.87203592 -.00000667  00000-0 -23780-4 0  9996,2 51141  53.2164 222.4733 0002448  41.1598 318.9578 15.08823948 50839,6917.929,95.439,541.488,538.101,0.0
51141.0,STARLINK-3179,PAYLOAD,2022-12-09 22:31:06,15.08827562,0.000179,53.2159,222.1753,55.992,304.1242,-7.7344e-05,-1.518e-05,0.0,0 STARLINK-3179,1 51141U 22005AP  22343.93827385 -.00001518  00000-0 -77344-4 0  9996,2 51141  53.2159 222.1753 0001790  55.9920 304.1242 15.08827562 49731,6917.918000000002,95.438,541.0219999999998,538.545,0.0
51141.0,STARLINK-3179,PAYLOAD,2022-12-10 19:11:08,15.08832244,0.0003145,53.2154,218.3142,29.3091,330.8077,-9.9341e-05,-1.869e-05,0.0,0 STARLINK-3179,1 51141U 22005AP  22344.79940347 -.00001869  00000-0 -99341-4 0  9995,2 51141  53.2154 218.3142 0003145  29.3091 330.8077 15.08832244 49864,6917.904,95.438,541.945,537.5930000000002,0.0
51141.0,STARLINK-3179,PAYLOAD,2022-12-10 22:21:54,15.08837547,0.000302,53.2161,217.7184,35.9239,324.1956,-4.0164e-05,-9.28e-06,0.0,0 STARLINK-3179,1 51141U 22005AP  22344.93187882 -.00000928  00000-0 -40164-4 0  9992,2 51141  53.2161 217.7184 0003020  35.9239 324.1956 15.08837547 50999,6917.888000000001,95.438,541.842,537.664,0.0
51141.0,STARLINK-3179,PAYLOAD,2022-12-11 20:37:18,15.08843143,0.0002868,53.2147,213.5534,32.982,327.1351,0.00040712,6.198e-05,0.0,0 STARLINK-3179,1 51141U 22005AP  22345.85923944  .00006198  00000-0  40712-3 0  9992,2 51141  53.2147 213.5534 0002868  32.9820 327.1351 15.08843143 50023,6917.871,95.437,541.72,537.752,0.0
51141.0,STARLINK-3179,PAYLOAD,2022-12-12 01:23:28,15.08839258,0.0003074,53.2146,212.6613,31.51,328.6075,0.0003206,4.818e-05,0.0,0 STARLINK-3179,1 51141U 22005AP  22346.05796302  .00004818  00000-0  32060-3 0  9995,2 51141  53.2146 212.6613 0003074  31.5100 328.6075 15.08839258 51163,6917.8830000000025,95.438,541.874,537.621,0.0
51141.0,STARLINK-3179,PAYLOAD,2022-12-13 07:35:47,15.08842507,0.0002968,53.2144,207.0107,34.1615,325.9567,4.1154e-05,3.66e-06,0.0,0 STARLINK-3179,1 51141U 22005AP  22347.31651977  .00000366  00000-0  41154-4 0  9992,2 51141  53.2144 207.0107 0002968  34.1615 325.9567 15.08842507 51356,6917.873000000001,95.437,541.7909999999998,537.685,0.0
51141.0,STARLINK-3179,PAYLOAD,2022-12-13 13:57:19,15.08847897,0.0003001,53.2147,205.8211,34.4723,325.6463,-0.00015688,-2.785e-05,0.0,0 STARLINK-3179,1 51141U 22005AP  22347.58147679 -.00002785  00000-0 -15688-3 0  9991,2 51141  53.2147 205.8211 0003001  34.4723 325.6463 15.08847897 50283,6917.856,95.437,541.797,537.645,0.0
51141.0,STARLINK-3179,PAYLOAD,2022-12-13 17:08:06,15.08839088,0.0002974,53.2145,205.2264,35.0654,325.0534,-0.00010814,-2.009e-05,0.0,0 STARLINK-3179,1 51141U 22005AP  22347.71396096 -.00002009  00000-0 -10814-3 0  9990,2 51141  53.2145 205.2264 0002974  35.0654 325.0534 15.08839088 50300,6917.8830000000025,95.438,541.806,537.691,0.0
51141.0,STARLINK-3179,PAYLOAD,2022-12-14 07:26:35,15.08832386,0.0002966,53.2153,202.5497,33.544000000000004,326.574,1.9771e-05,2.6e-07,0.0,0 STARLINK-3179,1 51141U 22005AP  22348.31012995  .00000026  00000-0  19771-4 0  9997,2 51141  53.2153 202.5497 0002966  33.5440 326.5740 15.08832386 51506,6917.904,95.438,541.821,537.717,0.0
51141.0,STARLINK-3179,PAYLOAD,2022-12-15 07:17:21,15.08847913,0.0002964,53.2153,198.08900000000003,35.0027,325.1159,0.00012287,1.668e-05,0.0,0 STARLINK-3179,1 51141U 22005AP  22349.30371757  .00001668  00000-0  12287-3 0  9998,2 51141  53.2153 198.0890 0002964  35.0027 325.1159 15.08847913 51655,6917.856,95.437,541.7719999999998,537.6709999999998,0.0
51141.0,STARLINK-3179,PAYLOAD,2022-12-15 13:38:53,15.08846748,0.0003048,53.2149,196.8994,37.349,322.7714,0.00011306,1.512e-05,0.0,0 STARLINK-3179,1 51141U 22005AP  22349.56867859  .00001512  00000-0  11306-3 0  9998,2 51141  53.2149 196.8994 0003048  37.3490 322.7714 15.08846748 50580,6917.86,95.437,541.8330000000002,537.616,0.0
51141.0,STARLINK-3179,PAYLOAD,2022-12-15 20:00:26,15.08835188,0.0002913,53.2146,195.7091,32.1455,327.9714,9.2412e-05,1.182e-05,0.0,0 STARLINK-3179,1 51141U 22005AP  22349.83364506  .00001182  00000-0  92412-4 0  9990,2 51141  53.2146 195.7091 0002913  32.1455 327.9714 15.08835188 50625,6917.895,95.438,541.775,537.745,0.0
51141.0,STARLINK-3179,PAYLOAD,2022-12-15 21:35:50,15.08835473,0.0002883,53.2152,195.4121,35.3202,324.7981,8.9569e-05,1.137e-05,0.0,0 STARLINK-3179,1 51141U 22005AP  22349.89988579  .00001137  00000-0  89569-4 0  9997,2 51141  53.2152 195.4121 0002883  35.3202 324.7981 15.08835473 51746,6917.894,95.438,541.754,537.765,0.0
51141.0,STARLINK-3179,PAYLOAD,2022-12-16 13:29:41,15.08842118,0.000289,53.215,192.4382,34.3897,325.7282,6.9708e-05,8.21e-06,0.0,0 STARLINK-3179,1 51141U 22005AP  22350.56228175  .00000821  00000-0  69708-4 0  9994,2 51141  53.2150 192.4382 0002890  34.3897 325.7282 15.08842118 50734,6917.874,95.437,541.738,537.74,0.0
51141.0,STARLINK-3179,PAYLOAD,2022-12-16 19:51:14,15.08834916,0.0002938,53.2149,191.2491,33.991,326.1269,-6.1174e-05,-1.262e-05,0.0,0 STARLINK-3179,1 51141U 22005AP  22350.82725000 -.00001262  00000-0 -61174-4 0  9993,2 51141  53.2149 191.2491 0002938  33.9910 326.1269 15.08834916 50775,6917.896,95.438,541.793,537.7280000000002,0.0
51141.0,STARLINK-3179,PAYLOAD,2022-12-16 23:02:00,15.08834318,0.0002933,53.2149,190.6542,35.0204,325.098,-6.6212e-05,-1.342e-05,0.0,0 STARLINK-3179,1 51141U 22005AP  22350.95973074 -.00001342  00000-0 -66212-4 0  9990,2 51141  53.2149 190.6542 0002933  35.0204 325.0980 15.08834318 51909,6917.898,95.438,541.7919999999998,537.734,0.0
51141.0,STARLINK-3179,PAYLOAD,2022-12-17 13:20:28,15.08833195,0.0002925,53.215,187.9778,36.464,323.6551,-3.0312e-06,-3.37e-06,0.0,0 STARLINK-3179,1 51141U 22005AP  22351.55589075 -.00000337  00000-0 -30312-5 0  9997,2 51141  53.2150 187.9778 0002925  36.4640 323.6551 15.08833195 50887,6917.901,95.438,541.79,537.743,0.0
51141.0,STARLINK-3179,PAYLOAD,2022-12-17 19:42:01,15.08835987,0.0002955,53.215,186.7884,37.12,322.9996,1.9896e-05,2.8e-07,0.0,0 STARLINK-3179,1 51141U 22005AP  22351.82084931  .00000028  00000-0  19896-4 0  9996,2 51141  53.2150 186.7884 0002955  37.1200 322.9996 15.08835987 50926,6917.893,95.438,541.802,537.7130000000002,0.0
51141.0,STARLINK-3179,PAYLOAD,2022-12-18 13:11:15,15.08839028,0.0003088,53.2149,183.5178,37.8814,322.2395,4.3514e-05,4.04e-06,0.0,0 STARLINK-3179,1 51141U 22005AP  22352.54948929  .00000404  00000-0  43514-4 0  9994,2 51141  53.2149 183.5178 0003088  37.8814 322.2395 15.08839028 52143,6917.8830000000025,95.438,541.885,537.612,0.0
51141.0,STARLINK-3179,PAYLOAD,2022-12-18 16:22:02,15.08803386,0.0003341,53.2149,182.9232,42.3848,317.7401,0.00056053,8.635e-05,0.0,0 STARLINK-3179,1 51141U 22005AP  22352.68197622  .00008635  00000-0  56053-3 0  9990,2 51141  53.2149 182.9232 0003341  42.3848 317.7401 15.08803386 52164,6917.9919999999975,95.44,542.169,537.5459999999998,0.0
51141.0,STARLINK-3179,PAYLOAD,2022-12-18 19:32:48,15.0884708,0.000307,53.215,182.3283,38.2059,321.9151,-6.3224e-06,-3.89e-06,0.0,0 STARLINK-3179,1 51141U 22005AP  22352.81444568 -.00000389  00000-0 -63224-5 0  9999,2 51141  53.2150 182.3283 0003070  38.2059 321.9151 15.08847080 51070,6917.859,95.437,541.8480000000002,537.6,0.0
51141.0,STARLINK-3179,PAYLOAD,2022-12-18 22:43:34,15.08847619,0.0003077,53.215,181.7336,39.59,320.5316,-3.3753e-06,-3.42e-06,0.0,0 STARLINK-3179,1 51141U 22005AP  22352.94692503 -.00000342  00000-0 -33753-5 0  9990,2 51141  53.2150 181.7336 0003077  39.5900 320.5316 15.08847619 52200,6917.857,95.437,541.851,537.5930000000002,0.0
51141.0,STARLINK-3179,PAYLOAD,2022-12-19 19:23:35,15.08843501,0.0003113,53.2171,177.8669,44.0136,316.1103,0.00013064,1.791e-05,0.0,0 STARLINK-3179,1 51141U 22005AP  22353.80804551  .00001791  00000-0  13064-3 0  9992,2 51141  53.2171 177.8669 0003113  44.0136 316.1103 15.08843501 51223,6917.87,95.437,541.888,537.581,0.0
51141.0,STARLINK-3179,PAYLOAD,2022-12-19 20:58:58,15.08842284,0.0003089,53.2147,177.56799999999996,41.2734,318.8491,4.7271e-05,4.64e-06,0.0,0 STARLINK-3179,1 51141U 22005AP  22353.87428620  .00000464  00000-0  47271-4 0  9992,2 51141  53.2147 177.5680 0003089  41.2734 318.8491 15.08842284 52341,6917.873000000001,95.437,541.875,537.601,0.0
51141.0,STARLINK-3179,PAYLOAD,2022-12-20 04:55:54,15.08836048,0.0003119,53.215,176.0835,39.8239,320.2982,4.4924e-05,4.26e-06,0.0,0 STARLINK-3179,1 51141U 22005AP  22354.20549373  .00000426  00000-0  44924-4 0  9999,2 51141  53.2150 176.0835 0003119  39.8239 320.2982 15.08836048 52396,6917.892,95.438,541.915,537.6,0.0
51141.0,STARLINK-3179,PAYLOAD,2022-12-20 12:52:50,15.08839949,0.0003072,53.2157,174.5961,39.8594,320.2623,2.509e-05,1.11e-06,0.0,0 STARLINK-3179,1 51141U 22005AP  22354.53669232  .00000111  00000-0  25090-4 0  9996,2 51141  53.2157 174.5961 0003072  39.8594 320.2623 15.08839949 51336,6917.880999999999,95.438,541.871,537.62,0.0
